( ========================================== )
( CIRCLE - Milling Cycles                   )
( ========================================== )
( Lochdurchmesser   : 50.000 mm )
( Bohrtiefe         : 20.000 mm )
( Fräserdurchmesser : 10.000 mm )
( Spiralensteigung  : 3.000 mm/U )
( Helix-Start       : Z+3.000 mm )
( Endtiefe          : Z-20.000 mm )
( Rückzug Mitte     : 0.100 mm )
( Werkzeugbahn-Radius: 20.000 mm )
( ========================================== )

G21
G17
G90
F200.000

G0 X20.000000 Y0.000000
G0 Z3.000

G2 X20.000000 Y0.000000 I-20.000000 J0.000000 Z0.000000
G2 X20.000000 Y0.000000 I-20.000000 J0.000000 Z-3.000000
G2 X20.000000 Y0.000000 I-20.000000 J0.000000 Z-6.000000
G2 X20.000000 Y0.000000 I-20.000000 J0.000000 Z-9.000000
G2 X20.000000 Y0.000000 I-20.000000 J0.000000 Z-12.000000
G2 X20.000000 Y0.000000 I-20.000000 J0.000000 Z-15.000000
G2 X20.000000 Y0.000000 I-20.000000 J0.000000 Z-18.000000
G2 X-10.000000 Y17.320508 I-20.000000 J0.000000 Z-20.000000

( Schlichtkreis auf Endtiefe )
G2 X10.000000 Y-17.320508 I10.000000 J-17.320508
G2 X-10.000000 Y17.320508 I-10.000000 J17.320508

( Weg von der Lochwand )
G1 X-9.950000 Y17.233906

( Z zuerst auf Maschinenposition )
G53 G0 Z2.000

( X/Y erst nach vollstaendigem Z-Rueckzug )
G53 G0 X0.000 Y0.000

M2
