( ========================================== )
( OBERFLAECHE - Fraeszyklen               )
( ========================================== )
( Fraeserdurchmesser: 10.000 mm )
( Breite            : 100.000 mm )
( Tiefe             : 100.000 mm )
( Fraestiefe        : 10.000 mm )
( Z-Zustellung      : 3.000 mm )
( Start Z           : 3.000 mm )
( Ueberlappung      : 20.0 % )
( Bahnabstand       : 8.000 mm )
( Startpunkt        : links_oben )
( Maeander: Hin und Her )
( Spindeldrehrichtung bleibt unveraendert )
( ========================================== )

G21
G17
G90
F200.000

( Startposition )
G0 X0.000000 Y100.000000
G0 Z3.000000

( Zustellung Z-3.000 )
F100.000
G1 Z-3.000000
F200.000

G1 X100.000000 Y100.000000
G1 X100.000000 Y96.000000
G1 X0.000000 Y96.000000
G1 X0.000000 Y88.000000
G1 X100.000000 Y88.000000
G1 X100.000000 Y80.000000
G1 X0.000000 Y80.000000
G1 X0.000000 Y72.000000
G1 X100.000000 Y72.000000
G1 X100.000000 Y64.000000
G1 X0.000000 Y64.000000
G1 X0.000000 Y56.000000
G1 X100.000000 Y56.000000
G1 X100.000000 Y48.000000
G1 X0.000000 Y48.000000
G1 X0.000000 Y40.000000
G1 X100.000000 Y40.000000
G1 X100.000000 Y32.000000
G1 X0.000000 Y32.000000
G1 X0.000000 Y24.000000
G1 X100.000000 Y24.000000
G1 X100.000000 Y16.000000
G1 X0.000000 Y16.000000
G1 X0.000000 Y8.000000
G1 X100.000000 Y8.000000
G1 X100.000000 Y0.000000
G1 X0.000000 Y0.000000

( Zustellung Z-6.000 )
G0 Z3.000000
G0 X0.000000 Y100.000000
F100.000
G1 Z-6.000000
F200.000

G1 X100.000000 Y100.000000
G1 X100.000000 Y96.000000
G1 X0.000000 Y96.000000
G1 X0.000000 Y88.000000
G1 X100.000000 Y88.000000
G1 X100.000000 Y80.000000
G1 X0.000000 Y80.000000
G1 X0.000000 Y72.000000
G1 X100.000000 Y72.000000
G1 X100.000000 Y64.000000
G1 X0.000000 Y64.000000
G1 X0.000000 Y56.000000
G1 X100.000000 Y56.000000
G1 X100.000000 Y48.000000
G1 X0.000000 Y48.000000
G1 X0.000000 Y40.000000
G1 X100.000000 Y40.000000
G1 X100.000000 Y32.000000
G1 X0.000000 Y32.000000
G1 X0.000000 Y24.000000
G1 X100.000000 Y24.000000
G1 X100.000000 Y16.000000
G1 X0.000000 Y16.000000
G1 X0.000000 Y8.000000
G1 X100.000000 Y8.000000
G1 X100.000000 Y0.000000
G1 X0.000000 Y0.000000

( Zustellung Z-9.000 )
G0 Z3.000000
G0 X0.000000 Y100.000000
F100.000
G1 Z-9.000000
F200.000

G1 X100.000000 Y100.000000
G1 X100.000000 Y96.000000
G1 X0.000000 Y96.000000
G1 X0.000000 Y88.000000
G1 X100.000000 Y88.000000
G1 X100.000000 Y80.000000
G1 X0.000000 Y80.000000
G1 X0.000000 Y72.000000
G1 X100.000000 Y72.000000
G1 X100.000000 Y64.000000
G1 X0.000000 Y64.000000
G1 X0.000000 Y56.000000
G1 X100.000000 Y56.000000
G1 X100.000000 Y48.000000
G1 X0.000000 Y48.000000
G1 X0.000000 Y40.000000
G1 X100.000000 Y40.000000
G1 X100.000000 Y32.000000
G1 X0.000000 Y32.000000
G1 X0.000000 Y24.000000
G1 X100.000000 Y24.000000
G1 X100.000000 Y16.000000
G1 X0.000000 Y16.000000
G1 X0.000000 Y8.000000
G1 X100.000000 Y8.000000
G1 X100.000000 Y0.000000
G1 X0.000000 Y0.000000

( Zustellung Z-10.000 )
G0 Z3.000000
G0 X0.000000 Y100.000000
F100.000
G1 Z-10.000000
F200.000

G1 X100.000000 Y100.000000
G1 X100.000000 Y96.000000
G1 X0.000000 Y96.000000
G1 X0.000000 Y88.000000
G1 X100.000000 Y88.000000
G1 X100.000000 Y80.000000
G1 X0.000000 Y80.000000
G1 X0.000000 Y72.000000
G1 X100.000000 Y72.000000
G1 X100.000000 Y64.000000
G1 X0.000000 Y64.000000
G1 X0.000000 Y56.000000
G1 X100.000000 Y56.000000
G1 X100.000000 Y48.000000
G1 X0.000000 Y48.000000
G1 X0.000000 Y40.000000
G1 X100.000000 Y40.000000
G1 X100.000000 Y32.000000
G1 X0.000000 Y32.000000
G1 X0.000000 Y24.000000
G1 X100.000000 Y24.000000
G1 X100.000000 Y16.000000
G1 X0.000000 Y16.000000
G1 X0.000000 Y8.000000
G1 X100.000000 Y8.000000
G1 X100.000000 Y0.000000
G1 X0.000000 Y0.000000

( Z zuerst hoch )
G53 G0 Z2.000

( X/Y erst nach Z-Rueckzug )
G53 G0 X0.000 Y0.000

M2
