( ========================================== )
( RECTANGLE - Milling Cycles                )
( ========================================== )
( Cutter diameter : 10.000 mm )
( Width           : 100.000 mm )
( Depth           : 50.000 mm )
( Z step          : 3.000 mm )
( Milling depth   : 10.000 mm )
( Start Z         : 3.000 mm )
( Start point     : links_oben )
( Milling type    : innen )
( Milling direction: Climb / CCW )
( ========================================== )

G21
G17
G90
F200.000

( Startposition )
G0 X5.000000 Y-5.000000
G0 Z3.000000

( Zustellung Z-3.000 )
F100.000
G1 Z-3.000000
F200.000
G1 X5.000000 Y-5.000000
G1 X5.000000 Y-45.000000
G1 X95.000000 Y-45.000000
G1 X95.000000 Y-5.000000
G1 X5.000000 Y-5.000000

( Zustellung Z-6.000 )
F100.000
G1 Z-6.000000
F200.000
G1 X5.000000 Y-5.000000
G1 X5.000000 Y-45.000000
G1 X95.000000 Y-45.000000
G1 X95.000000 Y-5.000000
G1 X5.000000 Y-5.000000

( Zustellung Z-9.000 )
F100.000
G1 Z-9.000000
F200.000
G1 X5.000000 Y-5.000000
G1 X5.000000 Y-45.000000
G1 X95.000000 Y-45.000000
G1 X95.000000 Y-5.000000
G1 X5.000000 Y-5.000000

( Zustellung Z-10.000 )
F100.000
G1 Z-10.000000
F200.000
G1 X5.000000 Y-5.000000
G1 X5.000000 Y-45.000000
G1 X95.000000 Y-45.000000
G1 X95.000000 Y-5.000000
G1 X5.000000 Y-5.000000

( Z zuerst hoch )
G53 G0 Z2.000

( X/Y erst nach Z-Rueckzug )
G53 G0 X0.000 Y0.000

M2
